HST                     
1 20580U 90037B   26187.43980126  .00006941  00000+0  21758-3 0  9996
2 20580  28.4736 308.9720 0001833  18.1844 341.8817 15.30993245791524
POLAR                   
1 23802U 96013A   26186.52270603  .00000200  00000+0  00000+0 0  9992
2 23802  79.8774 226.8348 6488910 208.4492  91.0667  1.29846115145104
SWAS                    
1 25560U 98071A   26187.36318522  .00002610  00000+0  16792-3 0  9993
2 25560  69.8941 178.0634 0008177 240.0327 120.0026 15.09714769500169
CXO                     
1 25867U 99040B   26190.53249962  .00000720  00000+0  00000+0 0  9995
2 25867  56.4883 116.0416 7806468 310.0470   0.3268  0.37805019 17401
XMM-NEWTON              
1 25989U 99066A   26189.29225867  .00000112  00000+0  00000+0 0  9992
2 25989  64.3787 282.7174 4670357  64.5370   0.0317  0.50122523 23116
TERRA                   
1 25994U 99068A   26187.34234573  .00000406  00000+0  91496-4 0  9998
2 25994  97.9445 236.1282 0002979 140.4689 348.3967 14.61118973412404
CLUSTER II-FM7 (SAMBA)  
1 26410U 00041A   26188.21813830  .00007565  00000+0  00000+0 0  9990
2 26410 149.8713  54.4780 9079240 271.8882 359.5390  0.44838844 20406
CLUSTER II-FM8 (TANGO)  
1 26464U 00045B   26186.44804170  .00007110  00000+0  00000+0 0  9999
2 26464 150.0949  55.2192 9081119 272.4711   2.3437  0.44414475 20395
ODIN                    
1 26702U 01007A   26187.10029655  .00321557  00000+0  13609-2 0  9990
2 26702  97.3757 229.3567 0005549 141.2554 218.9115 15.84535874392388
TIMED                   
1 26998U 01055B   26187.47728131  .00001084  00000+0  10189-3 0  9996
2 26998  74.0660 196.1768 0001989 309.8021  50.2988 14.95331886333703
CORIOLIS                
1 27640U 03001A   26187.43411306  .00000095  00000+0  65354-4 0  9999
2 27640  98.7129 194.0251 0014522 153.1649 207.0281 14.19950109216954
SORCE                   
1 27651U 03004A   26187.33253841  .00003090  00000+0  23093-3 0  9992
2 27651  39.9893 152.4367 0017776 193.9590 166.0715 15.03810350274786
MOST                    
1 27843U 03031D   26187.00720232  .00000072  00000+0  53214-4 0  9998
2 27843  98.7046 194.4704 0009535 191.6129 168.4830 14.21326455193387
SCISAT 1                
1 27858U 03036A   26187.26886650  .00000760  00000+0  10162-3 0  9992
2 27858  73.9298 133.4301 0007830 202.8805 157.2024 14.81471465234278
SWIFT                   
1 28485U 04047A   26186.87627307  .00061981  00000+0  47565-3 0  9999
2 28485  20.5532  40.5436 0000897 245.9890 114.0463 15.70286946189802
HINODE (SOLAR-B)        
1 29479U 06041A   26187.05775509  .00000798  00000+0  14541-3 0  9995
2 29479  98.0546 202.9320 0016380 224.6513 135.3374 14.68650201 57645
SHIJIAN-6 02A (SJ-6 02A)
1 29505U 06046A   26187.61549602  .00006233  00000+0  31720-3 0  9993
2 29505  97.6343 228.8297 0004705  81.5925 278.5841 15.17182160 75211
SHIJIAN-6 02B (SJ-6 02B)
1 29506U 06046B   26187.60701858  .00001928  00000+0  15382-3 0  9998
2 29506  97.7148 216.5458 0014484   4.3598 355.7749 15.01428501 73659
FGRST (GLAST)           
1 33053U 08029A   26187.02035083  .00003711  00000+0  13510-3 0  9992
2 33053  25.5823  73.7030 0008011 185.9397 174.1047 15.24039935998712
SDO                     
1 36395U 10005A   26187.29985258 -.00000073  00000+0  00000+0 0  9993
2 36395  34.6882  86.0538 0001597  54.6395 149.2448  1.00269873 60254
CRYOSAT 2               
1 36508U 10013A   26187.86159104  .00000146  00000+0  35463-4 0  9990
2 36508  92.0359 282.0845 0002267  97.4501 262.6964 14.51896336860931
X-SAT                   
1 37389U 11015C   26187.88298743 -.00000032  00000+0  38773-5 0  9999
2 37389  98.3525 163.9690 0012849 287.7581  72.2197 14.25211924790487
GCOM-W1 (SHIZUKU)       
1 38337U 12025A   26187.74067376  .00000424  00000+0  10403-3 0  9998
2 38337  98.2023 128.0007 0001429  65.8323 355.4362 14.57143103751887
NUSTAR                  
1 38358U 12031A   26187.91670139  .00000039  00000+0 -49903-4 0  9995
2 38358   6.0268 246.1462 0006991  34.0346 238.5954 15.09000837  1304
NEOSSAT                 
1 39089U 13009D   26187.44296067  .00000167  00000+0  72348-4 0  9995
2 39089  98.4186   7.0184 0010883 182.8450 177.2676 14.35833431699505
BRITE-AUSTRIA           
1 39091U 13009F   26187.43200206  .00000186  00000+0  77696-4 0  9999
2 39091  98.4004   6.3921 0010220 175.9573 184.1698 14.36550054699815
IRIS                    
1 39197U 13033A   26187.55887480  .00001036  00000+0  12463-3 0  9996
2 39197  97.9322  26.7749 0022974 254.9191 104.9482 14.85924866703251
HISAKI (SPRINT-A)       
1 39253U 13049A   26187.20378117  .00000106  00000+0  53314-4 0  9998
2 39253  29.7188 123.3254 0136905 171.0277 189.2780 13.55546177634000
CASSIOPE                
1 39265U 13055A   26187.83169558  .00032891 -48756-6  35342-3 0  9998
2 39265  80.9128  42.8316 0285147 356.2461   3.6624 15.26981094670664
STSAT-3                 
1 39422U 13066G   26187.88813569  .00002301  00000+0  17603-3 0  9993
2 39422  97.6205 157.4598 0009140 339.6871  20.3989 15.02863619687161
SWARM B                 
1 39451U 13067A   26187.83865303  .00003423  00000+0  12157-3 0  9999
2 39451  87.7456 336.3461 0002633  80.3028 279.8519 15.28680091686249
