OBJECT_NAME,OBJECT_ID,EPOCH,MEAN_MOTION,ECCENTRICITY,INCLINATION,RA_OF_ASC_NODE,ARG_OF_PERICENTER,MEAN_ANOMALY,EPHEMERIS_TYPE,CLASSIFICATION_TYPE,NORAD_CAT_ID,ELEMENT_SET_NO,REV_AT_EPOCH,BSTAR,MEAN_MOTION_DOT,MEAN_MOTION_DDOT
HST,1990-037B,2026-07-06T10:33:18.828864,15.30993245,.00018336,28.4736,308.9720,18.1844,341.8817,0,U,20580,999,79152,.21757721E-3,.6941E-4,0
POLAR,1996-013A,2026-07-05T12:32:41.800992,1.29846115,.64889104,79.8774,226.8348,208.4492,91.0667,0,U,23802,999,14510,0,.2E-5,0
SWAS,1998-071A,2026-07-06T08:42:59.203008,15.09714769,.00081776,69.8941,178.0634,240.0327,120.0026,0,U,25560,999,50016,.16791959E-3,.261E-4,0
CXO,1999-040B,2026-07-09T12:46:47.967168,0.37805019,.78064689,56.4883,116.0416,310.0470,0.3268,0,U,25867,999,1740,0,.72E-5,0
XMM-NEWTON,1999-066A,2026-07-08T07:00:51.149088,0.50122523,.46703572,64.3787,282.7174,64.5370,0.0317,0,U,25989,999,2311,0,.112E-5,0
TERRA,1999-068A,2026-07-06T08:12:58.671072,14.61118973,.00029798,97.9445,236.1282,140.4689,348.3967,0,U,25994,999,41240,.91496407E-4,.406E-5,0
CLUSTER II-FM7 (SAMBA),2000-041A,2026-07-07T05:14:07.149120,0.44838844,.90792404,149.8713,54.4780,271.8882,359.5390,0,U,26410,999,2040,0,.7565E-4,0
CLUSTER II-FM8 (TANGO),2000-045B,2026-07-05T10:45:10.802880,0.44414475,.90811194,150.0949,55.2192,272.4711,2.3437,0,U,26464,999,2039,0,.711E-4,0
ODIN,2001-007A,2026-07-06T02:24:25.621920,15.84535874,.00055493,97.3757,229.3567,141.2554,218.9115,0,U,26702,999,39238,.13609455E-2,.321557E-2,0
TIMED,2001-055B,2026-07-06T11:27:17.105184,14.95331886,.00019894,74.0660,196.1768,309.8021,50.2988,0,U,26998,999,33370,.10189295E-3,.1084E-4,0
CORIOLIS,2003-001A,2026-07-06T10:25:07.368384,14.19950109,.00145226,98.7129,194.0251,153.1649,207.0281,0,U,27640,999,21695,.65354129E-4,.95E-6,0
SORCE,2003-004A,2026-07-06T07:58:51.318624,15.03810350,.00177761,39.9893,152.4367,193.9590,166.0715,0,U,27651,999,27478,.23093108E-3,.309E-4,0
MOST,2003-031D,2026-07-06T00:10:22.280448,14.21326455,.00095352,98.7046,194.4704,191.6129,168.4830,0,U,27843,999,19338,.53214404E-4,.72E-6,0
SCISAT 1,2003-036A,2026-07-06T06:27:10.065600,14.81471465,.00078307,73.9298,133.4301,202.8805,157.2024,0,U,27858,999,23427,.10161702E-3,.76E-5,0
SWIFT,2004-047A,2026-07-05T21:01:49.993248,15.70286946,.00008973,20.5532,40.5436,245.9890,114.0463,0,U,28485,999,18980,.47565052E-3,.61981E-3,0
HINODE (SOLAR-B),2006-041A,2026-07-06T01:23:10.039776,14.68650201,.00163809,98.0546,202.9320,224.6513,135.3374,0,U,29479,999,5764,.14541022E-3,.798E-5,0
SHIJIAN-6 02A (SJ-6 02A),2006-046A,2026-07-06T14:46:18.856128,15.17182160,.00047051,97.6343,228.8297,81.5925,278.5841,0,U,29505,999,7521,.31719535E-3,.6233E-4,0
SHIJIAN-6 02B (SJ-6 02B),2006-046B,2026-07-06T14:34:06.405312,15.01428501,.00144846,97.7148,216.5458,4.3598,355.7749,0,U,29506,999,7365,.15381678E-3,.1928E-4,0
FGRST (GLAST),2008-029A,2026-07-06T00:29:18.311712,15.24039935,.0008011,25.5823,73.7030,185.9397,174.1047,0,U,33053,999,99871,.1351E-3,.3711E-4,0
SDO,2010-005A,2026-07-06T07:11:47.262912,1.00269873,.00015973,34.6882,86.0538,54.6395,149.2448,0,U,36395,999,6025,0,-.73E-6,0
CRYOSAT 2,2010-013A,2026-07-06T20:40:41.465856,14.51896336,.0002267,92.0359,282.0845,97.4501,262.6964,0,U,36508,999,86093,.35463E-4,.146E-5,0
X-SAT,2011-015C,2026-07-06T21:11:30.113952,14.25211924,.0012849,98.3525,163.9690,287.7581,72.2197,0,U,37389,999,79048,.38773E-5,-.32E-6,0
GCOM-W1 (SHIZUKU),2012-025A,2026-07-06T17:46:34.212864,14.57143103,.0001429,98.2023,128.0007,65.8323,355.4362,0,U,38337,999,75188,.10403E-3,.424E-5,0
NUSTAR,2012-031A,2026-07-06T22:00:03.000096,15.09000837,.0006991,6.0268,246.1462,34.0346,238.5954,0,U,38358,999,130,-.49903E-4,.39E-6,0
NEOSSAT,2013-009D,2026-07-06T10:37:51.801888,14.35833431,.00108839,98.4186,7.0184,182.8450,177.2676,0,U,39089,999,69950,.7234811E-4,.167E-5,0
BRITE-AUSTRIA,2013-009F,2026-07-06T10:22:04.977984,14.36550054,.00102207,98.4004,6.3921,175.9573,184.1698,0,U,39091,999,69981,.77695905E-4,.186E-5,0
IRIS,2013-033A,2026-07-06T13:24:46.782720,14.85924866,.0022974,97.9322,26.7749,254.9191,104.9482,0,U,39197,999,70325,.12463E-3,.1036E-4,0
HISAKI (SPRINT-A),2013-049A,2026-07-06T04:53:26.693088,13.55546177,.01369056,29.7188,123.3254,171.0277,189.2780,0,U,39253,999,63400,.53314216E-4,.106E-5,0
CASSIOPE,2013-055A,2026-07-06T19:57:38.498112,15.26981094,.0285147,80.9128,42.8316,356.2461,3.6624,0,U,39265,999,67066,.35342E-3,.32891E-3,-.48756E-6
STSAT-3,2013-066G,2026-07-06T21:18:54.923616,15.02863619,.000914,97.6205,157.4598,339.6871,20.3989,0,U,39422,999,68716,.17603E-3,.2301E-4,0
SWARM B,2013-067A,2026-07-06T20:07:39.621792,15.28680091,.0002633,87.7456,336.3461,80.3028,279.8519,0,U,39451,999,68624,.12157E-3,.3423E-4,0
